{"type": "FeatureCollection", "features": [ {"type": "Feature", "properties": {"norad_id": 31615, "name": "FENGYUN 1C DEB", "group": "fengyun-1c-debris", "lat": 6.695637179223691, "lon": -134.52033560225433, "alt_km": 844.7612119011092, "timestamp": "2025-12-18T14:52:08.309132+00:00", "meta": {"OBJECT_NAME": "FENGYUN 1C DEB", "OBJECT_ID": "1999-025BZV", "EPOCH": "2025-12-17T21:19:17.155200", "MEAN_MOTION": 14.35438155, "ECCENTRICITY": 0.01662607, "INCLINATION": 99.1384, "RA_OF_ASC_NODE": 43.6226, "ARG_OF_PERICENTER": 301.5799, "MEAN_ANOMALY": 56.9245, "EPHEMERIS_TYPE": 0, "CLASSIFICATION_TYPE": "U", "NORAD_CAT_ID": 31615, "ELEMENT_SET_NO": 999, "REV_AT_EPOCH": 65352, "BSTAR": 0.0023099232, "MEAN_MOTION_DOT": 7.716e-05, "MEAN_MOTION_DDOT": 0}, "tle": {"line1": "1 31615U 99025BZV 25351.88839300  .00007716  00000+0  23099-2 0  9991", "line2": "2 31615  99.1384  43.6226 0166260 301.5799  56.9245 14.35438155653521"}}, "geometry": {"type": "Point", "coordinates": [-134.52033560225433, 6.695637179223691]}}, {"type": "Feature", "properties": {"norad_id": 31618, "name": "FENGYUN 1C DEB", "group": "fengyun-1c-debris", "lat": -63.180769924479314, "lon": 155.17530979980486, "alt_km": 719.3600196259522, "timestamp": "2025-12-18T14:52:08.309142+00:00", "meta": {"OBJECT_NAME": "FENGYUN 1C DEB", "OBJECT_ID": "1999-025BZY", "EPOCH": "2025-12-16T05:42:38.070432", "MEAN_MOTION": 14.21025507, "ECCENTRICITY": 0.0156911, "INCLINATION": 99.4431, "RA_OF_ASC_NODE": 133.4105, "ARG_OF_PERICENTER": 316.1709, "MEAN_ANOMALY": 42.7101, "EPHEMERIS_TYPE": 0, "CLASSIFICATION_TYPE": "U", "NORAD_CAT_ID": 31618, "ELEMENT_SET_NO": 999, "REV_AT_EPOCH": 70314, "BSTAR": 0.00029177742, "MEAN_MOTION_DOT": 6.65e-06, "MEAN_MOTION_DDOT": 0}, "tle": {"line1": "1 31618U 99025BZY 25350.23794063  .00000665  00000+0  29178-3 0  9999", "line2": "2 31618  99.4431 133.4105 0156911 316.1709  42.7101 14.21025507703145"}}, "geometry": {"type": "Point", "coordinates": [155.17530979980486, -63.180769924479314]}}, {"type": "Feature", "properties": {"norad_id": 31619, "name": "FENGYUN 1C DEB", "group": "fengyun-1c-debris", "lat": 16.341568426207324, "lon": 8.690001637404764, "alt_km": 636.6012235722274, "timestamp": "2025-12-18T14:52:08.309154+00:00", "meta": {"OBJECT_NAME": "FENGYUN 1C DEB", "OBJECT_ID": "1999-025BZZ", "EPOCH": "2025-12-17T23:34:56.000640", "MEAN_MOTION": 14.85928466, "ECCENTRICITY": 0.00947023, "INCLINATION": 99.0713, "RA_OF_ASC_NODE": 185.2794, "ARG_OF_PERICENTER": 278.4468, "MEAN_ANOMALY": 80.6018, "EPHEMERIS_TYPE": 0, "CLASSIFICATION_TYPE": "U", "NORAD_CAT_ID": 31619, "ELEMENT_SET_NO": 999, "REV_AT_EPOCH": 63566, "BSTAR": 0.0035881114, "MEAN_MOTION_DOT": 0.00034026, "MEAN_MOTION_DDOT": 0}, "tle": {"line1": "1 31619U 99025BZZ 25351.98259260  .00034026  00000+0  35881-2 0  9993", "line2": "2 31619  99.0713 185.2794 0094702 278.4468  80.6018 14.85928466635660"}}, "geometry": {"type": "Point", "coordinates": [8.690001637404764, 16.341568426207324]}}, {"type": "Feature", "properties": {"norad_id": 31620, "name": "FENGYUN 1C DEB", "group": "fengyun-1c-debris", "lat": -19.281778001604092, "lon": -106.24221132087058, "alt_km": 786.5715148468362, "timestamp": "2025-12-18T14:52:08.309165+00:00", "meta": {"OBJECT_NAME": "FENGYUN 1C DEB", "OBJECT_ID": "1999-025CAA", "EPOCH": "2025-12-16T11:49:19.295616", "MEAN_MOTION": 14.3728286, "ECCENTRICITY": 0.00198291, "INCLINATION": 98.8873, "RA_OF_ASC_NODE": 74.6992, "ARG_OF_PERICENTER": 32.0467, "MEAN_ANOMALY": 328.192, "EPHEMERIS_TYPE": 0, "CLASSIFICATION_TYPE": "U", "NORAD_CAT_ID": 31620, "ELEMENT_SET_NO": 999, "REV_AT_EPOCH": 65898, "BSTAR": 0.0016386082, "MEAN_MOTION_DOT": 4.852e-05, "MEAN_MOTION_DDOT": 0}, "tle": {"line1": "1 31620U 99025CAA 25350.49258444  .00004852  00000+0  16386-2 0  9996", "line2": "2 31620  98.8873  74.6992 0019829  32.0467 328.1920 14.37282860658987"}}, "geometry": {"type": "Point", "coordinates": [-106.24221132087058, -19.281778001604092]}}, {"type": "Feature", "properties": {"norad_id": 31622, "name": "FENGYUN 1C DEB", "group": "fengyun-1c-debris", "lat": -3.078843766467122, "lon": -92.9412146389566, "alt_km": 779.2707293532285, "timestamp": "2025-12-18T14:52:08.309175+00:00", "meta": {"OBJECT_NAME": "FENGYUN 1C DEB", "OBJECT_ID": "1999-025CAC", "EPOCH": "2025-12-18T05:55:27.878016", "MEAN_MOTION": 14.37239568, "ECCENTRICITY": 0.00150562, "INCLINATION": 98.8163, "RA_OF_ASC_NODE": 87.1553, "ARG_OF_PERICENTER": 324.7993, "MEAN_ANOMALY": 91.083, "EPHEMERIS_TYPE": 0, "CLASSIFICATION_TYPE": "U", "NORAD_CAT_ID": 31622, "ELEMENT_SET_NO": 999, "REV_AT_EPOCH": 95851, "BSTAR": 0.0015442437, "MEAN_MOTION_DOT": 4.562e-05, "MEAN_MOTION_DDOT": 0}, "tle": {"line1": "1 31622U 99025CAC 25352.24685044  .00004562  00000+0  15442-2 0  9993", "line2": "2 31622  98.8163  87.1553 0015056 324.7993  91.0830 14.37239568958511"}}, "geometry": {"type": "Point", "coordinates": [-92.9412146389566, -3.078843766467122]}}, {"type": "Feature", "properties": {"norad_id": 31623, "name": "FENGYUN 1C DEB", "group": "fengyun-1c-debris", "lat": 43.42863394360457, "lon": -164.1995996268853, "alt_km": 865.5706633801474, "timestamp": "2025-12-18T14:52:08.309185+00:00", "meta": {"OBJECT_NAME": "FENGYUN 1C DEB", "OBJECT_ID": "1999-025CAD", "EPOCH": "2025-12-02T20:02:22.350624", "MEAN_MOTION": 13.82580933, "ECCENTRICITY": 0.01951152, "INCLINATION": 97.6304, "RA_OF_ASC_NODE": 190.283, "ARG_OF_PERICENTER": 33.7651, "MEAN_ANOMALY": 327.5758, "EPHEMERIS_TYPE": 0, "CLASSIFICATION_TYPE": "U", "NORAD_CAT_ID": 31623, "ELEMENT_SET_NO": 999, "REV_AT_EPOCH": 57783, "BSTAR": 0.00047153491, "MEAN_MOTION_DOT": 5.61e-06, "MEAN_MOTION_DDOT": 0}, "tle": {"line1": "1 31623U 99025CAD 25336.83498091  .00000561  00000+0  47153-3 0  9995", "line2": "2 31623  97.6304 190.2830 0195115  33.7651 327.5758 13.82580933577835"}}, "geometry": {"type": "Point", "coordinates": [-164.1995996268853, 43.42863394360457]}}, {"type": "Feature", "properties": {"norad_id": 31625, "name": "FENGYUN 1C DEB", "group": "fengyun-1c-debris", "lat": -7.608924660127421, "lon": -102.2234016171142, "alt_km": 815.9955848659683, "timestamp": "2025-12-18T14:52:08.309195+00:00", "meta": {"OBJECT_NAME": "FENGYUN 1C DEB", "OBJECT_ID": "1999-025CAF", "EPOCH": "2025-12-17T17:15:18.895680", "MEAN_MOTION": 14.55406245, "ECCENTRICITY": 0.01490087, "INCLINATION": 98.806, "RA_OF_ASC_NODE": 78.0139, "ARG_OF_PERICENTER": 0.6251, "MEAN_ANOMALY": 151.4732, "EPHEMERIS_TYPE": 0, "CLASSIFICATION_TYPE": "U", "NORAD_CAT_ID": 31625, "ELEMENT_SET_NO": 999, "REV_AT_EPOCH": 98465, "BSTAR": 0.00012064111, "MEAN_MOTION_DOT": 5.48e-06, "MEAN_MOTION_DDOT": 0}, "tle": {"line1": "1 31625U 99025CAF 25351.71896870  .00000548  00000+0  12064-3 0  9996", "line2": "2 31625  98.8060  78.0139 0149008   0.6251 151.4732 14.55406245984655"}}, "geometry": {"type": "Point", "coordinates": [-102.2234016171142, -7.608924660127421]}}, {"type": "Feature", "properties": {"norad_id": 31627, "name": "FENGYUN 1C DEB", "group": "fengyun-1c-debris", "lat": 0.3542106608400959, "lon": 40.374110910719686, "alt_km": 802.1937420297545, "timestamp": "2025-12-18T14:52:08.309205+00:00", "meta": {"OBJECT_NAME": "FENGYUN 1C DEB", "OBJECT_ID": "1999-025CAH", "EPOCH": "2025-11-26T09:13:22.975680", "MEAN_MOTION": 14.35408996, "ECCENTRICITY": 0.00515931, "INCLINATION": 98.5313, "RA_OF_ASC_NODE": 18.4415, "ARG_OF_PERICENTER": 201.9005, "MEAN_ANOMALY": 157.9975, "EPHEMERIS_TYPE": 0, "CLASSIFICATION_TYPE": "U", "NORAD_CAT_ID": 31627, "ELEMENT_SET_NO": 999, "REV_AT_EPOCH": 64532, "BSTAR": 0.0013473839, "MEAN_MOTION_DOT": 3.885e-05, "MEAN_MOTION_DDOT": 0}, "tle": {"line1": "1 31627U 99025CAH 25330.38429370  .00003885  00000+0  13474-2 0  9997", "line2": "2 31627  98.5313  18.4415 0051593 201.9005 157.9975 14.35408996645325"}}, "geometry": {"type": "Point", "coordinates": [40.374110910719686, 0.3542106608400959]}}, {"type": "Feature", "properties": {"norad_id": 31628, "name": "FENGYUN 1C DEB", "group": "fengyun-1c-debris", "lat": 16.62769253861552, "lon": -154.461007394592, "alt_km": 1061.481204567055, "timestamp": "2025-12-18T14:52:08.309215+00:00", "meta": {"OBJECT_NAME": "FENGYUN 1C DEB", "OBJECT_ID": "1999-025CAJ", "EPOCH": "2025-12-17T21:28:14.434464", "MEAN_MOTION": 13.86858861, "ECCENTRICITY": 0.01681353, "INCLINATION": 102.2707, "RA_OF_ASC_NODE": 208.3173, "ARG_OF_PERICENTER": 207.8761, "MEAN_ANOMALY": 151.3297, "EPHEMERIS_TYPE": 0, "CLASSIFICATION_TYPE": "U", "NORAD_CAT_ID": 31628, "ELEMENT_SET_NO": 999, "REV_AT_EPOCH": 93371, "BSTAR": 0.0017722263, "MEAN_MOTION_DOT": 2.245e-05, "MEAN_MOTION_DDOT": 0}, "tle": {"line1": "1 31628U 99025CAJ 25351.89461151  .00002245  00000+0  17722-2 0  9999", "line2": "2 31628 102.2707 208.3173 0168135 207.8761 151.3297 13.86858861933715"}}, "geometry": {"type": "Point", "coordinates": [-154.461007394592, 16.62769253861552]}}, {"type": "Feature", "properties": {"norad_id": 31629, "name": "FENGYUN 1C DEB", "group": "fengyun-1c-debris", "lat": 43.14979232351832, "lon": -127.73135567333918, "alt_km": 880.2199528716801, "timestamp": "2025-12-18T14:52:08.309225+00:00", "meta": {"OBJECT_NAME": "FENGYUN 1C DEB", "OBJECT_ID": "1999-025CAK", "EPOCH": "2025-12-17T09:22:54.161760", "MEAN_MOTION": 14.14662382, "ECCENTRICITY": 0.01036677, "INCLINATION": 102.1337, "RA_OF_ASC_NODE": 38.97, "ARG_OF_PERICENTER": 15.3289, "MEAN_ANOMALY": 345.0973, "EPHEMERIS_TYPE": 0, "CLASSIFICATION_TYPE": "U", "NORAD_CAT_ID": 31629, "ELEMENT_SET_NO": 999, "REV_AT_EPOCH": 94512, "BSTAR": 0.0017444885, "MEAN_MOTION_DOT": 3.464e-05, "MEAN_MOTION_DDOT": 0}, "tle": {"line1": "1 31629U 99025CAK 25351.39090465  .00003464  00000+0  17445-2 0  9997", "line2": "2 31629 102.1337  38.9700 0103667  15.3289 345.0973 14.14662382945127"}}, "geometry": {"type": "Point", "coordinates": [-127.73135567333918, 43.14979232351832]}}]}